start=new Date('2022-04-25T00:00:00.000Z').valueOf();
sats=[{"BSTAR":"0.00002472200000","GP_ID":"201936099","ARG_OF_PERICENTER":"53.6373","NORAD_CAT_ID":"47752","CENTER_NAME":"EARTH","RCS_SIZE":"MEDIUM","REF_FRAME":"TEME","ELEMENT_SET_NO":"999","MEAN_MOTION_DDOT":"0.0000000000000","PERIAPSIS":"545.899","OBJECT_NAME":"STARLINK-2169","EPOCH":"2022-04-24T08:08:33.067104","MEAN_ELEMENT_THEORY":"SGP4","APOAPSIS":"548.557","MEAN_MOTION_DOT":"0.00000087","CLASSIFICATION_TYPE":"U","INCLINATION":"53.0544","COUNTRY_CODE":"US","MEAN_ANOMALY":"306.4793","PERIOD":"95.592","TIME_SYSTEM":"UTC","TLE_LINE1":"1 47752U 21017AG  22114.33927161  .00000087  00000-0  24722-4 0  9994","FILE":"3414186","RA_OF_ASC_NODE":"80.3782","SEMIMAJOR_AXIS":"6925.363","OBJECT_TYPE":"PAYLOAD","REV_AT_EPOCH":"6452","DECAY_DATE":null,"LAUNCH_DATE":"2021-03-04","EPHEMERIS_TYPE":"0","OBJECT_ID":"2021-017AG","TLE_LINE2":"2 47752  53.0544  80.3782 0001919  53.6373 306.4793 15.06395410 64526","ECCENTRICITY":"0.00019190","SITE":"AFETR","MEAN_MOTION":"15.06395410"},{"TLE_LINE1":"1 47753U 21017AH  22114.58024377  .00001373  00000-0  11111-3 0  9995","FILE":"3414186","RA_OF_ASC_NODE":"84.2988","SEMIMAJOR_AXIS":"6925.367","OBJECT_TYPE":"PAYLOAD","PERIOD":"95.593","TIME_SYSTEM":"UTC","ECCENTRICITY":"0.00019280","SITE":"AFETR","MEAN_MOTION":"15.06394039","REV_AT_EPOCH":"6448","DECAY_DATE":null,"LAUNCH_DATE":"2021-03-04","EPHEMERIS_TYPE":"0","OBJECT_ID":"2021-017AH","TLE_LINE2":"2 47753  53.0558  84.2988 0001928  54.0175 306.0992 15.06394039 64486","ELEMENT_SET_NO":"999","MEAN_MOTION_DDOT":"0.0000000000000","PERIAPSIS":"545.897","BSTAR":"0.00011111000000","GP_ID":"201934348","NORAD_CAT_ID":"47753","ARG_OF_PERICENTER":"54.0175","RCS_SIZE":"LARGE","CENTER_NAME":"EARTH","REF_FRAME":"TEME","CLASSIFICATION_TYPE":"U","INCLINATION":"53.0558","MEAN_ANOMALY":"306.0992","COUNTRY_CODE":"US","OBJECT_NAME":"STARLINK-2170","MEAN_ELEMENT_THEORY":"SGP4","EPOCH":"2022-04-24T13:55:33.061728","APOAPSIS":"548.567","MEAN_MOTION_DOT":"0.00001373"},{"MEAN_ELEMENT_THEORY":"SGP4","EPOCH":"2022-04-24T06:50:55.158432","OBJECT_NAME":"STARLINK-2171","MEAN_MOTION_DOT":"0.00001220","APOAPSIS":"548.553","CLASSIFICATION_TYPE":"U","MEAN_ANOMALY":"317.8743","COUNTRY_CODE":"US","INCLINATION":"53.0543","NORAD_CAT_ID":"47754","ARG_OF_PERICENTER":"42.2394","BSTAR":"0.00010078000000","GP_ID":"201934598","REF_FRAME":"TEME","CENTER_NAME":"EARTH","RCS_SIZE":"LARGE","PERIAPSIS":"545.880","ELEMENT_SET_NO":"999","MEAN_MOTION_DDOT":"0.0000000000000","LAUNCH_DATE":"2021-03-04","EPHEMERIS_TYPE":"0","REV_AT_EPOCH":"6440","DECAY_DATE":null,"OBJECT_ID":"2021-017AJ","TLE_LINE2":"2 47754  53.0543  85.6294 0001930  42.2394 317.8743 15.06398938 64409","ECCENTRICITY":"0.00019300","SITE":"AFETR","MEAN_MOTION":"15.06398938","PERIOD":"95.592","TIME_SYSTEM":"UTC","RA_OF_ASC_NODE":"85.6294","TLE_LINE1":"1 47754U 21017AJ  22114.28536063  .00001220  00000-0  10078-3 0  9995","FILE":"3414186","OBJECT_TYPE":"PAYLOAD","SEMIMAJOR_AXIS":"6925.352"},{"SEMIMAJOR_AXIS":"6678.873","OBJECT_TYPE":"PAYLOAD","TLE_LINE1":"1 47755U 21017AK  22114.18508418  .00057263  00000-0  18279-3 0  9997","FILE":"3414186","RA_OF_ASC_NODE":"36.7275","TIME_SYSTEM":"UTC","PERIOD":"90.535","SITE":"AFETR","MEAN_MOTION":"15.90552575","ECCENTRICITY":"0.00012960","OBJECT_ID":"2021-017AK","TLE_LINE2":"2 47755  53.0472  36.7275 0001296 132.8188 227.2946 15.90552575 65074","REV_AT_EPOCH":"6507","DECAY_DATE":null,"LAUNCH_DATE":"2021-03-04","EPHEMERIS_TYPE":"0","ELEMENT_SET_NO":"999","MEAN_MOTION_DDOT":"0.0000000000000","PERIAPSIS":"299.872","RCS_SIZE":"LARGE","CENTER_NAME":"EARTH","REF_FRAME":"TEME","BSTAR":"0.00018279000000","GP_ID":"201935849","NORAD_CAT_ID":"47755","ARG_OF_PERICENTER":"132.8188","INCLINATION":"53.0472","COUNTRY_CODE":"US","MEAN_ANOMALY":"227.2946","CLASSIFICATION_TYPE":"U","APOAPSIS":"301.603","MEAN_MOTION_DOT":"0.00057263","OBJECT_NAME":"STARLINK-2172","EPOCH":"2022-04-24T04:26:31.273152","MEAN_ELEMENT_THEORY":"SGP4"},{"MEAN_MOTION_DOT":"0.00001093","APOAPSIS":"548.414","MEAN_ELEMENT_THEORY":"SGP4","EPOCH":"2022-04-24T14:43:18.054624","OBJECT_NAME":"STARLINK-2174","COUNTRY_CODE":"US","MEAN_ANOMALY":"306.7182","INCLINATION":"53.0548","CLASSIFICATION_TYPE":"U","REF_FRAME":"TEME","RCS_SIZE":"LARGE","CENTER_NAME":"EARTH","ARG_OF_PERICENTER":"53.3969","NORAD_CAT_ID":"47756","GP_ID":"201943086","BSTAR":"0.00009225600000","PERIAPSIS":"545.967","ELEMENT_SET_NO":"999","MEAN_MOTION_DDOT":"0.0000000000000","OBJECT_ID":"2021-017AL","TLE_LINE2":"2 47756  53.0548  84.1510 0001767  53.3969 306.7182 15.06407460 63819","LAUNCH_DATE":"2021-03-04","EPHEMERIS_TYPE":"0","REV_AT_EPOCH":"6381","DECAY_DATE":null,"SITE":"AFETR","MEAN_MOTION":"15.06407460","ECCENTRICITY":"0.00017670","TIME_SYSTEM":"UTC","PERIOD":"95.592","OBJECT_TYPE":"PAYLOAD","SEMIMAJOR_AXIS":"6925.326","RA_OF_ASC_NODE":"84.1510","TLE_LINE1":"1 47756U 21017AL  22114.61340341  .00001093  00000-0  92256-4 0  9993","FILE":"3414388"},{"TIME_SYSTEM":"UTC","PERIOD":"95.592","SEMIMAJOR_AXIS":"6925.336","OBJECT_TYPE":"PAYLOAD","FILE":"3414186","TLE_LINE1":"1 47757U 21017AM  22114.39962335  .00000608  00000-0  59715-4 0  9996","RA_OF_ASC_NODE":"85.1155","TLE_LINE2":"2 47757  53.0551  85.1155 0002024  45.9386 314.1769 15.06404059 64408","OBJECT_ID":"2021-017AM","DECAY_DATE":null,"REV_AT_EPOCH":"6440","LAUNCH_DATE":"2021-03-04","EPHEMERIS_TYPE":"0","MEAN_MOTION":"15.06404059","SITE":"AFETR","ECCENTRICITY":"0.00020240","CENTER_NAME":"EARTH","RCS_SIZE":"LARGE","REF_FRAME":"TEME","BSTAR":"0.00005971500000","GP_ID":"201934848","ARG_OF_PERICENTER":"45.9386","NORAD_CAT_ID":"47757","ELEMENT_SET_NO":"999","MEAN_MOTION_DDOT":"0.0000000000000","PERIAPSIS":"545.799","APOAPSIS":"548.603","MEAN_MOTION_DOT":"0.00000608","OBJECT_NAME":"STARLINK-2175","MEAN_ELEMENT_THEORY":"SGP4","EPOCH":"2022-04-24T09:35:27.457440","INCLINATION":"53.0551","MEAN_ANOMALY":"314.1769","COUNTRY_CODE":"US","CLASSIFICATION_TYPE":"U"},{"CLASSIFICATION_TYPE":"U","INCLINATION":"53.0551","COUNTRY_CODE":"US","MEAN_ANOMALY":"312.0618","OBJECT_NAME":"STARLINK-2178","EPOCH":"2022-04-24T15:08:31.564032","MEAN_ELEMENT_THEORY":"SGP4","APOAPSIS":"548.777","MEAN_MOTION_DOT":"0.00002363","MEAN_MOTION_DDOT":"0.0000000000000","ELEMENT_SET_NO":"999","PERIAPSIS":"545.654","BSTAR":"0.00017749000000","GP_ID":"201943079","ARG_OF_PERICENTER":"48.0563","NORAD_CAT_ID":"47760","CENTER_NAME":"EARTH","RCS_SIZE":"LARGE","REF_FRAME":"TEME","ECCENTRICITY":"0.00022550","MEAN_MOTION":"15.06399401","SITE":"AFETR","DECAY_DATE":null,"REV_AT_EPOCH":"6367","LAUNCH_DATE":"2021-03-04","EPHEMERIS_TYPE":"0","TLE_LINE2":"2 47760  53.0551  94.0691 0002255  48.0563 312.0618 15.06399401 63675","OBJECT_ID":"2021-017AQ","FILE":"3414387","TLE_LINE1":"1 47760U 21017AQ  22114.63092088  .00002363  00000-0  17749-3 0  9996","RA_OF_ASC_NODE":"94.0691","SEMIMAJOR_AXIS":"6925.350","OBJECT_TYPE":"PAYLOAD","PERIOD":"95.592","TIME_SYSTEM":"UTC"},{"MEAN_MOTION_DOT":"0.00001347","APOAPSIS":"548.530","EPOCH":"2022-04-24T07:54:37.440000","MEAN_ELEMENT_THEORY":"SGP4","OBJECT_NAME":"STARLINK-2179","MEAN_ANOMALY":"302.7309","COUNTRY_CODE":"US","INCLINATION":"53.0544","CLASSIFICATION_TYPE":"U","REF_FRAME":"TEME","CENTER_NAME":"EARTH","RCS_SIZE":"LARGE","NORAD_CAT_ID":"47761","ARG_OF_PERICENTER":"57.3863","BSTAR":"0.00010930000000","GP_ID":"201935350","PERIAPSIS":"545.908","MEAN_MOTION_DDOT":"0.0000000000000","ELEMENT_SET_NO":"999","TLE_LINE2":"2 47761  53.0544  85.4256 0001893  57.3863 302.7309 15.06398113 64406","OBJECT_ID":"2021-017AR","LAUNCH_DATE":"2021-03-04","EPHEMERIS_TYPE":"0","DECAY_DATE":null,"REV_AT_EPOCH":"6440","MEAN_MOTION":"15.06398113","SITE":"AFETR","ECCENTRICITY":"0.00018930","TIME_SYSTEM":"UTC","PERIOD":"95.592","OBJECT_TYPE":"PAYLOAD","SEMIMAJOR_AXIS":"6925.354","RA_OF_ASC_NODE":"85.4256","FILE":"3414186","TLE_LINE1":"1 47761U 21017AR  22114.32960000  .00001347  00000-0  10930-3 0  9997"},{"MEAN_ANOMALY":"313.9827","COUNTRY_CODE":"US","INCLINATION":"53.0548","CLASSIFICATION_TYPE":"U","MEAN_MOTION_DOT":"0.00001780","APOAPSIS":"548.643","MEAN_ELEMENT_THEORY":"SGP4","EPOCH":"2022-04-24T05:19:59.881440","OBJECT_NAME":"STARLINK-2180","PERIAPSIS":"545.785","ELEMENT_SET_NO":"999","MEAN_MOTION_DDOT":"0.0000000000000","REF_FRAME":"TEME","CENTER_NAME":"EARTH","RCS_SIZE":"LARGE","NORAD_CAT_ID":"47762","ARG_OF_PERICENTER":"46.1332","GP_ID":"201936100","BSTAR":"0.00013838000000","SITE":"AFETR","MEAN_MOTION":"15.06399900","ECCENTRICITY":"0.00020630","OBJECT_ID":"2021-017AS","TLE_LINE2":"2 47762  53.0548 100.9087 0002063  46.1332 313.9827 15.06399900 64193","LAUNCH_DATE":"2021-03-04","EPHEMERIS_TYPE":"0","REV_AT_EPOCH":"6419","DECAY_DATE":null,"OBJECT_TYPE":"PAYLOAD","SEMIMAJOR_AXIS":"6925.349","RA_OF_ASC_NODE":"100.9087","TLE_LINE1":"1 47762U 21017AS  22114.22222085  .00001780  00000-0  13838-3 0  9992","FILE":"3414186","TIME_SYSTEM":"UTC","PERIOD":"95.592"},{"MEAN_MOTION_DDOT":"0.0000000000000","ELEMENT_SET_NO":"999","PERIAPSIS":"545.708","GP_ID":"201934349","BSTAR":"0.00003482600000","ARG_OF_PERICENTER":"49.5918","NORAD_CAT_ID":"47763","RCS_SIZE":"LARGE","CENTER_NAME":"EARTH","REF_FRAME":"TEME","CLASSIFICATION_TYPE":"U","INCLINATION":"53.0558","MEAN_ANOMALY":"310.5261","COUNTRY_CODE":"US","OBJECT_NAME":"STARLINK-2181","EPOCH":"2022-04-24T10:30:32.065632","MEAN_ELEMENT_THEORY":"SGP4","APOAPSIS":"548.726","MEAN_MOTION_DOT":"0.00000237","FILE":"3414186","TLE_LINE1":"1 47763U 21017AT  22114.43787113  .00000237  00000-0  34826-4 0  9991","RA_OF_ASC_NODE":"89.9412","SEMIMAJOR_AXIS":"6925.352","OBJECT_TYPE":"PAYLOAD","PERIOD":"95.592","TIME_SYSTEM":"UTC","ECCENTRICITY":"0.00021790","MEAN_MOTION":"15.06398728","SITE":"AFETR","DECAY_DATE":null,"REV_AT_EPOCH":"6434","LAUNCH_DATE":"2021-03-04","EPHEMERIS_TYPE":"0","TLE_LINE2":"2 47763  53.0558  89.9412 0002179  49.5918 310.5261 15.06398728 64347","OBJECT_ID":"2021-017AT"}];
